GLOBALSTAR M084         
1 38040U 11080A   25282.82961627 -.00000120  00000+0 -88505-4 0  9999
2 38040  52.0013  59.4580 0000448 101.6326  53.1269 12.62269275637143
GLOBALSTAR M080         
1 38041U 11080B   25282.79941130 -.00000117  00000+0 -75925-4 0  9991
2 38041  52.0063  61.1821 0001176  87.6079  59.0653 12.62269580637268
GLOBALSTAR M082         
1 38042U 11080C   25283.17930802 -.00000094  00000+0  52969-4 0  9995
2 38042  52.0103  15.5003 0000888  98.4834 266.1167 12.62263264638026
GLOBALSTAR M092         
1 38043U 11080D   25282.95019303 -.00000097  00000+0  37436-4 0  9990
2 38043  52.0063 106.5820 0000857  88.2953  73.6389 12.62266881636444
GLOBALSTAR M090         
1 38044U 11080E   25283.20931603 -.00000089  00000+0  81210-4 0  9996
2 38044  52.0151   9.2850 0000674 117.1449 263.0465 12.62262607638145
GLOBALSTAR M086         
1 38045U 11080F   25282.52028156 -.00000098  00000+0  33677-4 0  9995
2 38045  51.9924  11.7195 0000997 182.9395 190.4289 12.62277822638007
GLOBALSTAR M097         
1 39072U 13005A   25283.17826899 -.00000098  00000+0  33976-4 0  9999
2 39072  52.0042 284.3874 0000415 101.5443 258.5470 12.62266355585333
GLOBALSTAR M093         
1 39073U 13005B   25283.15225399 -.00000099  00000+0  24755-4 0  9992
2 39073  52.0096 277.7184 0000565 113.0870 247.0056 12.62265026585282
